KUIPER-00112            
1 65150U 25171U   25316.83336806 -.01203344  00000+0 -65941-1 0  9991
2 65150  51.8870 315.6581 0008119 119.2839  70.0017 15.16700396  4242
KUIPER-00114            
1 65151U 25171V   25316.76428206  .00003032  00000+0  42677-3 0  9992
2 65151  51.9024 332.6516 0006382  82.3744 277.7943 14.79920258 15321
KUIPER-00115            
1 65152U 25171W   25316.83336806  .00013362  00000+0  17722-2 0  9994
2 65152  51.9018 324.8215 0010204 105.3601 219.4743 14.80048101  5296
KUIPER-00116            
1 65153U 25171X   25316.72919941  .00007322  00000+0  10359-2 0  9998
2 65153  51.9000 330.2912 0010321  66.8594 293.3454 14.77910189 15353
KUIPER-00118            
1 65154U 25171Y   25316.32511722  .00011050  00000+0  14727-2 0  9996
2 65154  51.9020 334.5664 0001963  97.5805 262.5380 14.80030470 15261
KUIPER-00119            
1 65155U 25171Z   25316.83336806 -.00830767  00000+0 -91273-1 0  9997
2 65155  51.9167 320.2453 0008392  90.9595 235.6864 14.90163235  5699
KUIPER-00120            
1 65762U 25217A   25316.83336806 -.00747452  00000+0 -52531-1 0  9994
2 65762  51.8957 211.8753 0013155 266.9068  99.0759 15.07325872  5488
KUIPER-00132            
1 65763U 25217B   25316.72829382  .00060102  00000+0  16576-2 0  9997
2 65763  51.8624 209.8188 0005644 272.3482  87.6858 15.36515416  7420
